NORAD_CAT_ID,OBJECT_NAME,OBJECT_TYPE,EPOCH,MEAN_MOTION,ECCENTRICITY,INCLINATION,RA_OF_ASC_NODE,ARG_OF_PERICENTER,MEAN_ANOMALY,BSTAR,MEAN_MOTION_DOT,MEAN_MOTION_DDOT,TLE_LINE0,TLE_LINE1,TLE_LINE2,SEMIMAJOR_AXIS,PERIOD,APOGEE,PERIGEE,DECAYED
56467.0,STARLINK-6055,PAYLOAD,2024-02-04 19:18:52,14.98332597,0.0002871,69.9983,250.6024,271.3207,88.7623,2.874e-05,2.5e-06,0.0,0 STARLINK-6055,1 56467U 23064V   24035.80477985  .00000250  00000-0  28740-4 0  9997,2 56467  69.9983 250.6024 0002871 271.3207  88.7623 14.98332597 41676,6950.185,96.107,574.045,570.054,0.0
56467.0,STARLINK-6055,PAYLOAD,2024-02-04 22:31:08,14.98333819,0.0002854,69.9982,250.2657,271.2298,88.8534,4.3785e-05,4.3e-06,0.0,0 STARLINK-6055,1 56467U 23064V   24035.93829838  .00000430  00000-0  43785-4 0  9995,2 56467  69.9982 250.2657 0002854 271.2298  88.8534 14.98333819 41336,6950.181,96.107,574.03,570.062,0.0
56467.0,STARLINK-6055,PAYLOAD,2024-02-05 14:32:29,14.98328747,0.0002805,69.9984,248.5835,269.2207,90.8631,2.1465e-05,1.63e-06,0.0,0 STARLINK-6055,1 56467U 23064V   24036.60590145  .00000163  00000-0  21465-4 0  9990,2 56467  69.9984 248.5835 0002805 269.2207  90.8631 14.98328747 41435,6950.197,96.107,574.011,570.112,0.0
56467.0,STARLINK-6055,PAYLOAD,2024-02-05 19:20:54,14.98329294,0.0002801,69.9985,248.0785,269.1948,90.8891,2.6029e-05,2.18e-06,0.0,0 STARLINK-6055,1 56467U 23064V   24036.80618100  .00000218  00000-0  26029-4 0  9996,2 56467  69.9985 248.0785 0002801 269.1948  90.8891 14.98329294 41821,6950.195,96.107,574.007,570.113,0.0
56467.0,STARLINK-6055,PAYLOAD,2024-02-05 22:33:10,14.98329567,0.0002792,69.9984,247.7417,268.9832,91.1007,2.822e-05,2.44e-06,0.0,0 STARLINK-6055,1 56467U 23064V   24036.93970072  .00000244  00000-0  28220-4 0  9993,2 56467  69.9984 247.7417 0002792 268.9832  91.1007 14.98329567 41484,6950.194,96.107,574.0,570.119,0.0
56467.0,STARLINK-6055,PAYLOAD,2024-02-06 14:34:30,14.98333766,0.0002697,69.9987,246.0588,264.6255,95.4597,-1.5822e-05,-2.82e-06,0.0,0 STARLINK-6055,1 56467U 23064V   24037.60729830 -.00000282  00000-0 -15822-4 0  9990,2 56467  69.9987 246.0588 0002697 264.6255  95.4597 14.98333766 41582,6950.181,96.107,573.921,570.172,0.0
56467.0,STARLINK-6055,PAYLOAD,2024-02-06 19:22:54,14.98334239,0.0002683,69.9988,245.554,264.3476,95.7377,-7.4431e-06,-1.82e-06,0.0,0 STARLINK-6055,1 56467U 23064V   24037.80757722 -.00000182  00000-0 -74431-5 0  9994,2 56467  69.9988 245.5540 0002683 264.3476  95.7377 14.98334239 41970,6950.18,96.107,573.91,570.18,0.0
56467.0,STARLINK-6055,PAYLOAD,2024-02-06 22:35:10,14.9833379,0.000269,69.9987,245.2173,265.076,95.0092,-1.1956e-05,-2.36e-06,0.0,0 STARLINK-6055,1 56467U 23064V   24037.94109733 -.00000236  00000-0 -11956-4 0  9994,2 56467  69.9987 245.2173 0002690 265.0760  95.0092 14.98333790 41631,6950.181,96.107,573.916,570.177,0.0
56467.0,STARLINK-6055,PAYLOAD,2024-02-07 14:36:31,14.98328298,0.000265,69.9988,243.5338,266.6691,93.4165,-1.8032e-05,-3.08e-06,0.0,0 STARLINK-6055,1 56467U 23064V   24038.60870018 -.00000308  00000-0 -18032-4 0  9991,2 56467  69.9988 243.5338 0002650 266.6691  93.4165 14.98328298 41733,6950.198,96.107,573.905,570.221,0.0
56467.0,STARLINK-6055,PAYLOAD,2024-02-07 19:24:56,14.98327012,0.0002692,69.9987,243.0286,269.7703,90.3147,-3.4258e-05,-5.02e-06,0.0,0 STARLINK-6055,1 56467U 23064V   24038.80898173 -.00000502  00000-0 -34258-4 0  9999,2 56467  69.9987 243.0286 0002692 269.7703  90.3147 14.98327012 42126,6950.202,96.107,573.938,570.196,0.0
56467.0,STARLINK-6055,PAYLOAD,2024-02-07 21:01:04,14.98326446,0.00027,69.9988,242.8603,269.2363,90.8487,-4.0179e-05,-5.72e-06,0.0,0 STARLINK-6055,1 56467U 23064V   24038.87574232 -.00000572  00000-0 -40179-4 0  9999,2 56467  69.9988 242.8603 0002700 269.2363  90.8487 14.98326446 41776,6950.204,96.107,573.945,570.192,0.0
56467.0,STARLINK-6055,PAYLOAD,2024-02-08 14:38:32,14.98332662,0.0002807,69.9985,241.0083,269.7639,90.3199,-1.1616e-05,-2.32e-06,0.0,0 STARLINK-6055,1 56467U 23064V   24039.61009764 -.00000232  00000-0 -11616-4 0  9992,2 56467  69.9985 241.0083 0002807 269.7639  90.3199 14.98332662 41889,6950.185,96.107,574.001,570.099,0.0
56467.0,STARLINK-6055,PAYLOAD,2024-02-08 19:26:56,14.9833273,0.0002806,69.9987,240.5033,269.6726,90.4112,-8.103e-06,-1.9e-06,0.0,0 STARLINK-6055,1 56467U 23064V   24039.81037711 -.00000190  00000-0 -81030-5 0  9998,2 56467  69.9987 240.5033 0002806 269.6726  90.4112 14.98332730 42271,6950.184,96.107,574.0,570.099,0.0
56467.0,STARLINK-6055,PAYLOAD,2024-02-08 22:39:12,14.98333101,0.0002803,69.9988,240.1667,269.7135,90.3703,-2.789e-06,-1.26e-06,0.0,0 STARLINK-6055,1 56467U 23064V   24039.94389648 -.00000126  00000-0 -27890-5 0  9994,2 56467  69.9988 240.1667 0002803 269.7135  90.3703 14.98333101 41933,6950.183,96.107,573.996,570.1,0.0
56467.0,STARLINK-6055,PAYLOAD,2024-02-09 14:40:33,14.98328265,0.0002819,69.9989,238.4833,269.68,90.4036,3.3562e-05,3.07e-06,0.0,0 STARLINK-6055,1 56467U 23064V   24040.61149774  .00000307  00000-0  33562-4 0  9995,2 56467  69.9989 238.4833 0002819 269.6800  90.4036 14.98328265 42031,6950.198,96.107,574.023,570.104,0.0
56467.0,STARLINK-6055,PAYLOAD,2024-02-09 19:28:57,14.98328297,0.0002825,69.9991,237.9784,269.6012,90.4823,3.1153e-05,2.79e-06,0.0,0 STARLINK-6055,1 56467U 23064V   24040.81177785  .00000279  00000-0  31153-4 0  9992,2 56467  69.9991 237.9784 0002825 269.6012  90.4823 14.98328297 42427,6950.198,96.107,574.027,570.1,0.0
56467.0,STARLINK-6055,PAYLOAD,2024-02-10 13:06:26,14.9832978,0.0002766,69.9994,236.127,269.7736,90.3106,-2.1789e-05,-3.53e-06,0.0,0 STARLINK-6055,1 56467U 23064V   24041.54613849 -.00000353  00000-0 -21789-4 0  9998,2 56467  69.9994 236.1270 0002766 269.7736  90.3106 14.98329780 42172,6950.194,96.107,573.981,570.136,0.0
56467.0,STARLINK-6055,PAYLOAD,2024-02-10 19:30:58,14.98328655,0.000276,69.9996,235.4539,266.2354,93.8489,-4.0969e-05,-5.82e-06,0.0,0 STARLINK-6055,1 56467U 23064V   24041.81317949 -.00000582  00000-0 -40969-4 0  9995,2 56467  69.9996 235.4539 0002760 266.2354  93.8489 14.98328655 42572,6950.197,96.107,573.98,570.144,0.0
56467.0,STARLINK-6055,PAYLOAD,2024-02-10 22:43:14,14.98328669,0.0002783,69.9995,235.1171,267.7897,92.2943,-4.0544e-05,-5.77e-06,0.0,0 STARLINK-6055,1 56467U 23064V   24041.94669960 -.00000577  00000-0 -40544-4 0  9995,2 56467  69.9995 235.1171 0002783 267.7897  92.2943 14.98328669 42239,6950.197,96.107,573.996,570.128,0.0
56467.0,STARLINK-6055,PAYLOAD,2024-02-11 14:44:35,14.98332345,0.00029,69.9993,233.4336,270.6343,89.4484,7.7953e-06,0.0,0.0,0 STARLINK-6055,1 56467U 23064V   24042.61429539  .00000000  00000-0  77953-5 0  9990,2 56467  69.9993 233.4336 0002900 270.6343  89.4484 14.98332345 42336,6950.186,96.107,574.066,570.035,0.0
56467.0,STARLINK-6055,PAYLOAD,2024-02-11 19:32:59,14.98332547,0.0002892,69.9995,232.9286,271.5815,88.5013,1.2639e-05,5.8e-07,0.0,0 STARLINK-6055,1 56467U 23064V   24042.81457487  .00000058  00000-0  12639-4 0  9997,2 56467  69.9995 232.9286 0002892 271.5815  88.5013 14.98332547 42725,6950.185,96.107,574.06,570.04,0.0
56467.0,STARLINK-6055,PAYLOAD,2024-02-11 21:09:07,14.98333372,0.0002881,69.9996,232.7603,271.5256,88.5573,2.2363e-05,1.74e-06,0.0,0 STARLINK-6055,1 56467U 23064V   24042.88133391  .00000174  00000-0  22363-4 0  9993,2 56467  69.9996 232.7603 0002881 271.5256  88.5573 14.98333372 42373,6950.182,96.107,574.05,570.045,0.0
56467.0,STARLINK-6055,PAYLOAD,2024-02-12 14:46:36,14.98328786,0.0002857,69.9998,230.9091,270.2451,89.838,1.731e-05,1.14e-06,0.0,0 STARLINK-6055,1 56467U 23064V   24043.61569603  .00000114  00000-0  17310-4 0  9994,2 56467  69.9998 230.9091 0002857 270.2451  89.8380 14.98328786 42487,6950.197,96.107,574.047,570.076,0.0
56467.0,STARLINK-6055,PAYLOAD,2024-02-12 19:35:00,14.98329123,0.0002851,69.9999,230.4042,270.7897,89.2935,2.0457e-05,1.51e-06,0.0,0 STARLINK-6055,1 56467U 23064V   24043.81597579  .00000151  00000-0  20457-4 0  9996,2 56467  69.9999 230.4042 0002851 270.7897  89.2935 14.98329123 42871,6950.196,96.107,574.042,570.079,0.0
56467.0,STARLINK-6055,PAYLOAD,2024-02-12 22:47:16,14.98329129,0.0002851,69.9999,230.0676,271.1499,88.9333,1.906e-05,1.34e-06,0.0,0 STARLINK-6055,1 56467U 23064V   24043.94949581  .00000134  00000-0  19060-4 0  9993,2 56467  69.9999 230.0676 0002851 271.1499  88.9333 14.98329129 42530,6950.196,96.107,574.042,570.079,0.0
56467.0,STARLINK-6055,PAYLOAD,2024-02-13 14:48:36,14.98331977,0.0002808,70.0001,228.3845,268.4328,91.651,-1.7288e-05,-2.99e-06,0.0,0 STARLINK-6055,1 56467U 23064V   24044.61709427 -.00000299  00000-0 -17288-4 0  9995,2 56467  70.0001 228.3845 0002808 268.4328  91.6510 14.98331977 42630,6950.187,96.107,574.003,570.1,0.0
56467.0,STARLINK-6055,PAYLOAD,2024-02-13 19:37:01,14.98331493,0.0002808,70.0001,227.8796,269.4488,90.6349,-2.0275e-05,-3.35e-06,0.0,0 STARLINK-6055,1 56467U 23064V   24044.81737446 -.00000335  00000-0 -20275-4 0  9990,2 56467  70.0001 227.8796 0002808 269.4488  90.6349 14.98331493 43023,6950.188,96.107,574.005,570.102,0.0
56467.0,STARLINK-6055,PAYLOAD,2024-02-13 21:13:09,14.98331465,0.0002811,70.0001,227.7113,269.5802,90.5035,-2.0248e-05,-3.35e-06,0.0,0 STARLINK-6055,1 56467U 23064V   24044.88413441 -.00000335  00000-0 -20248-4 0  9993,2 56467  70.0001 227.7113 0002811 269.5802  90.5035 14.98331465 42670,6950.188,96.107,574.007,570.1,0.0
56467.0,STARLINK-6055,PAYLOAD,2024-02-14 14:50:38,14.983279,0.0002843,70.0,225.8594,268.8565,91.2268,-2.3137e-05,-3.69e-06,0.0,0 STARLINK-6055,1 56467U 23064V   24045.61849624 -.00000369  00000-0 -23137-4 0  9998,2 56467  70.0000 225.8594 0002843 268.8565  91.2268 14.98327900 42781,6950.199,96.107,574.04,570.088,0.0
56467.0,STARLINK-6055,PAYLOAD,2024-02-14 21:15:10,14.98327545,0.000285,70.0,225.1863,268.5154,91.5679,-2.5441e-05,-3.96e-06,0.0,0 STARLINK-6055,1 56467U 23064V   24045.88553671 -.00000396  00000-0 -25441-4 0  9991,2 56467  70.0000 225.1863 0002850 268.5154  91.5679 14.98327545 42821,6950.2,96.107,574.046,570.085,0.0
